CCSDS_OMM_VERS = 2.0
CREATION_DATE  = 
ORIGINATOR     = 

OBJECT_NAME    = CZ-2F DEB
OBJECT_ID      = 2026-024F
CENTER_NAME    = EARTH
REF_FRAME      = TEME
TIME_SYSTEM    = UTC
MEAN_ELEMENT_THEORY = SGP/SGP4

EPOCH          = 2026-03-04T10:17:07.618560
MEAN_MOTION    = 15.01983894
ECCENTRICITY   = .03166052
INCLINATION    = 49.7925
RA_OF_ASC_NODE = 47.2373
ARG_OF_PERICENTER = 250.3794
MEAN_ANOMALY   = 106.2724

EPHEMERIS_TYPE = 0
CLASSIFICATION_TYPE = U
NORAD_CAT_ID   = 67719
ELEMENT_SET_NO = 999
REV_AT_EPOCH   = 345
BSTAR          = .46990167E-2
MEAN_MOTION_DOT = .195013E-2
MEAN_MOTION_DDOT = 0

CCSDS_OMM_VERS = 2.0
CREATION_DATE  = 
ORIGINATOR     = 

OBJECT_NAME    = CZ-2F DEB
OBJECT_ID      = 2026-024G
CENTER_NAME    = EARTH
REF_FRAME      = TEME
TIME_SYSTEM    = UTC
MEAN_ELEMENT_THEORY = SGP/SGP4

EPOCH          = 2026-03-04T09:45:50.650272
MEAN_MOTION    = 14.99277874
ECCENTRICITY   = .03274402
INCLINATION    = 49.8314
RA_OF_ASC_NODE = 47.8837
ARG_OF_PERICENTER = 246.4592
MEAN_ANOMALY   = 110.1638

EPHEMERIS_TYPE = 0
CLASSIFICATION_TYPE = U
NORAD_CAT_ID   = 67720
ELEMENT_SET_NO = 999
REV_AT_EPOCH   = 376
BSTAR          = .46336437E-2
MEAN_MOTION_DOT = .186952E-2
MEAN_MOTION_DDOT = 0

CCSDS_OMM_VERS = 2.0
CREATION_DATE  = 
ORIGINATOR     = 

OBJECT_NAME    = STARLINK-36772
OBJECT_ID      = 2026-026A
CENTER_NAME    = EARTH
REF_FRAME      = TEME
TIME_SYSTEM    = UTC
MEAN_ELEMENT_THEORY = SGP/SGP4

EPOCH          = 2026-03-04T20:00:03.000384
MEAN_MOTION    = 15.66759013
ECCENTRICITY   = .0001611
INCLINATION    = 97.2847
RA_OF_ASC_NODE = 118.2438
ARG_OF_PERICENTER = 67.0189
MEAN_ANOMALY   = 323.4528

EPHEMERIS_TYPE = 0
CLASSIFICATION_TYPE = U
NORAD_CAT_ID   = 67721
ELEMENT_SET_NO = 999
REV_AT_EPOCH   = 453
BSTAR          = -.21545E-1
MEAN_MOTION_DOT = -.1994514E-1
MEAN_MOTION_DDOT = 0

CCSDS_OMM_VERS = 2.0
CREATION_DATE  = 
ORIGINATOR     = 

OBJECT_NAME    = STARLINK-36796
OBJECT_ID      = 2026-026B
CENTER_NAME    = EARTH
REF_FRAME      = TEME
TIME_SYSTEM    = UTC
MEAN_ELEMENT_THEORY = SGP/SGP4

EPOCH          = 2026-03-04T20:00:03.000384
MEAN_MOTION    = 15.65886666
ECCENTRICITY   = .000162
INCLINATION    = 97.2845
RA_OF_ASC_NODE = 118.2424
ARG_OF_PERICENTER = 71.6478
MEAN_ANOMALY   = 315.6918

EPHEMERIS_TYPE = 0
CLASSIFICATION_TYPE = U
NORAD_CAT_ID   = 67722
ELEMENT_SET_NO = 999
REV_AT_EPOCH   = 453
BSTAR          = -.22293E-1
MEAN_MOTION_DOT = -.1992489E-1
MEAN_MOTION_DDOT = 0

CCSDS_OMM_VERS = 2.0
CREATION_DATE  = 
ORIGINATOR     = 

OBJECT_NAME    = STARLINK-36369
OBJECT_ID      = 2026-026C
CENTER_NAME    = EARTH
REF_FRAME      = TEME
TIME_SYSTEM    = UTC
MEAN_ELEMENT_THEORY = SGP/SGP4

EPOCH          = 2026-03-04T20:00:03.000384
MEAN_MOTION    = 15.66287519
ECCENTRICITY   = .0001658
INCLINATION    = 97.2845
RA_OF_ASC_NODE = 118.2472
ARG_OF_PERICENTER = 66.6512
MEAN_ANOMALY   = 331.5957

EPHEMERIS_TYPE = 0
CLASSIFICATION_TYPE = U
NORAD_CAT_ID   = 67723
ELEMENT_SET_NO = 999
REV_AT_EPOCH   = 453
BSTAR          = -.21922E-1
MEAN_MOTION_DOT = -.1991462E-1
MEAN_MOTION_DDOT = 0

CCSDS_OMM_VERS = 2.0
CREATION_DATE  = 
ORIGINATOR     = 

OBJECT_NAME    = STARLINK-36752
OBJECT_ID      = 2026-026D
CENTER_NAME    = EARTH
REF_FRAME      = TEME
TIME_SYSTEM    = UTC
MEAN_ELEMENT_THEORY = SGP/SGP4

EPOCH          = 2026-03-04T20:00:03.000384
MEAN_MOTION    = 15.67582951
ECCENTRICITY   = .0001673
INCLINATION    = 97.2845
RA_OF_ASC_NODE = 118.2571
ARG_OF_PERICENTER = 68.6330
MEAN_ANOMALY   = 352.6296

EPHEMERIS_TYPE = 0
CLASSIFICATION_TYPE = U
NORAD_CAT_ID   = 67724
ELEMENT_SET_NO = 999
REV_AT_EPOCH   = 453
BSTAR          = -.20844E-1
MEAN_MOTION_DOT = -.1995477E-1
MEAN_MOTION_DDOT = 0

CCSDS_OMM_VERS = 2.0
CREATION_DATE  = 
ORIGINATOR     = 

OBJECT_NAME    = STARLINK-36754
OBJECT_ID      = 2026-026E
CENTER_NAME    = EARTH
REF_FRAME      = TEME
TIME_SYSTEM    = UTC
MEAN_ELEMENT_THEORY = SGP/SGP4

EPOCH          = 2026-03-04T20:00:03.000384
MEAN_MOTION    = 15.64996829
ECCENTRICITY   = .0001575
INCLINATION    = 97.2844
RA_OF_ASC_NODE = 118.2459
ARG_OF_PERICENTER = 68.7570
MEAN_ANOMALY   = 326.3651

EPHEMERIS_TYPE = 0
CLASSIFICATION_TYPE = U
NORAD_CAT_ID   = 67725
ELEMENT_SET_NO = 999
REV_AT_EPOCH   = 453
BSTAR          = -.23107E-1
MEAN_MOTION_DOT = -.1992767E-1
MEAN_MOTION_DDOT = 0

CCSDS_OMM_VERS = 2.0
CREATION_DATE  = 
ORIGINATOR     = 

OBJECT_NAME    = STARLINK-36755
OBJECT_ID      = 2026-026F
CENTER_NAME    = EARTH
REF_FRAME      = TEME
TIME_SYSTEM    = UTC
MEAN_ELEMENT_THEORY = SGP/SGP4

EPOCH          = 2026-03-04T20:00:03.000384
MEAN_MOTION    = 15.62542883
ECCENTRICITY   = .000158
INCLINATION    = 97.2843
RA_OF_ASC_NODE = 118.2339
ARG_OF_PERICENTER = 75.6462
MEAN_ANOMALY   = 291.3974

EPHEMERIS_TYPE = 0
CLASSIFICATION_TYPE = U
NORAD_CAT_ID   = 67726
ELEMENT_SET_NO = 999
REV_AT_EPOCH   = 453
BSTAR          = -.25335E-1
MEAN_MOTION_DOT = -.198386E-1
MEAN_MOTION_DDOT = 0

CCSDS_OMM_VERS = 2.0
CREATION_DATE  = 
ORIGINATOR     = 

OBJECT_NAME    = STARLINK-36741
OBJECT_ID      = 2026-026G
CENTER_NAME    = EARTH
REF_FRAME      = TEME
TIME_SYSTEM    = UTC
MEAN_ELEMENT_THEORY = SGP/SGP4

EPOCH          = 2026-03-04T20:00:03.000384
MEAN_MOTION    = 15.63669331
ECCENTRICITY   = .0001567
INCLINATION    = 97.2843
RA_OF_ASC_NODE = 118.2433
ARG_OF_PERICENTER = 72.4467
MEAN_ANOMALY   = 316.5983

EPHEMERIS_TYPE = 0
CLASSIFICATION_TYPE = U
NORAD_CAT_ID   = 67727
ELEMENT_SET_NO = 999
REV_AT_EPOCH   = 453
BSTAR          = -.24238E-1
MEAN_MOTION_DOT = -.1983987E-1
MEAN_MOTION_DDOT = 0

CCSDS_OMM_VERS = 2.0
CREATION_DATE  = 
ORIGINATOR     = 

OBJECT_NAME    = STARLINK-36757
OBJECT_ID      = 2026-026H
CENTER_NAME    = EARTH
REF_FRAME      = TEME
TIME_SYSTEM    = UTC
MEAN_ELEMENT_THEORY = SGP/SGP4

EPOCH          = 2026-03-04T20:00:03.000384
MEAN_MOTION    = 15.68142415
ECCENTRICITY   = .0001777
INCLINATION    = 97.2845
RA_OF_ASC_NODE = 118.2707
ARG_OF_PERICENTER = 68.7068
MEAN_ANOMALY   = 24.3004

EPHEMERIS_TYPE = 0
CLASSIFICATION_TYPE = U
NORAD_CAT_ID   = 67728
ELEMENT_SET_NO = 999
REV_AT_EPOCH   = 453
BSTAR          = -.20388E-1
MEAN_MOTION_DOT = -.1996971E-1
MEAN_MOTION_DDOT = 0

CCSDS_OMM_VERS = 2.0
CREATION_DATE  = 
ORIGINATOR     = 

OBJECT_NAME    = STARLINK-36751
OBJECT_ID      = 2026-026J
CENTER_NAME    = EARTH
REF_FRAME      = TEME
TIME_SYSTEM    = UTC
MEAN_ELEMENT_THEORY = SGP/SGP4

EPOCH          = 2026-03-04T20:00:03.000384
MEAN_MOTION    = 15.68710730
ECCENTRICITY   = .000187
INCLINATION    = 97.2846
RA_OF_ASC_NODE = 118.2795
ARG_OF_PERICENTER = 66.7659
MEAN_ANOMALY   = 46.3538

EPHEMERIS_TYPE = 0
CLASSIFICATION_TYPE = U
NORAD_CAT_ID   = 67729
ELEMENT_SET_NO = 999
REV_AT_EPOCH   = 453
BSTAR          = -.19912E-1
MEAN_MOTION_DOT = -.199663E-1
MEAN_MOTION_DDOT = 0

CCSDS_OMM_VERS = 2.0
CREATION_DATE  = 
ORIGINATOR     = 

OBJECT_NAME    = STARLINK-36747
OBJECT_ID      = 2026-026K
CENTER_NAME    = EARTH
REF_FRAME      = TEME
TIME_SYSTEM    = UTC
MEAN_ELEMENT_THEORY = SGP/SGP4

EPOCH          = 2026-03-04T20:00:03.000384
MEAN_MOTION    = 15.68611097
ECCENTRICITY   = .0001822
INCLINATION    = 97.2847
RA_OF_ASC_NODE = 118.2752
ARG_OF_PERICENTER = 66.2891
MEAN_ANOMALY   = 37.2378

EPHEMERIS_TYPE = 0
CLASSIFICATION_TYPE = U
NORAD_CAT_ID   = 67730
ELEMENT_SET_NO = 999
REV_AT_EPOCH   = 453
BSTAR          = -.20019E-1
MEAN_MOTION_DOT = -.1998791E-1
MEAN_MOTION_DDOT = 0

CCSDS_OMM_VERS = 2.0
CREATION_DATE  = 
ORIGINATOR     = 

OBJECT_NAME    = STARLINK-36315
OBJECT_ID      = 2026-026L
CENTER_NAME    = EARTH
REF_FRAME      = TEME
TIME_SYSTEM    = UTC
MEAN_ELEMENT_THEORY = SGP/SGP4

EPOCH          = 2026-03-04T20:00:03.000384
MEAN_MOTION    = 15.68887532
ECCENTRICITY   = .0001828
INCLINATION    = 97.2844
RA_OF_ASC_NODE = 118.2826
ARG_OF_PERICENTER = 74.8605
MEAN_ANOMALY   = 45.5646

EPHEMERIS_TYPE = 0
CLASSIFICATION_TYPE = U
NORAD_CAT_ID   = 67731
ELEMENT_SET_NO = 999
REV_AT_EPOCH   = 453
BSTAR          = -.19787E-1
MEAN_MOTION_DOT = -.1998348E-1
MEAN_MOTION_DDOT = 0

CCSDS_OMM_VERS = 2.0
CREATION_DATE  = 
ORIGINATOR     = 

OBJECT_NAME    = STARLINK-36260
OBJECT_ID      = 2026-026M
CENTER_NAME    = EARTH
REF_FRAME      = TEME
TIME_SYSTEM    = UTC
MEAN_ELEMENT_THEORY = SGP/SGP4

EPOCH          = 2026-03-04T20:00:03.000384
MEAN_MOTION    = 15.69264323
ECCENTRICITY   = .0001912
INCLINATION    = 97.2847
RA_OF_ASC_NODE = 118.2873
ARG_OF_PERICENTER = 67.8017
MEAN_ANOMALY   = 63.1800

EPHEMERIS_TYPE = 0
CLASSIFICATION_TYPE = U
NORAD_CAT_ID   = 67732
ELEMENT_SET_NO = 999
REV_AT_EPOCH   = 453
BSTAR          = -.19417E-1
MEAN_MOTION_DOT = -.1992677E-1
MEAN_MOTION_DDOT = 0

CCSDS_OMM_VERS = 2.0
CREATION_DATE  = 
ORIGINATOR     = 

OBJECT_NAME    = STARLINK-36746
OBJECT_ID      = 2026-026N
CENTER_NAME    = EARTH
REF_FRAME      = TEME
TIME_SYSTEM    = UTC
MEAN_ELEMENT_THEORY = SGP/SGP4

EPOCH          = 2026-03-04T20:00:03.000384
MEAN_MOTION    = 15.49129171
ECCENTRICITY   = .0001675
INCLINATION    = 97.2847
RA_OF_ASC_NODE = 118.1302
ARG_OF_PERICENTER = 62.4677
MEAN_ANOMALY   = 60.3178

EPHEMERIS_TYPE = 0
CLASSIFICATION_TYPE = U
NORAD_CAT_ID   = 67733
ELEMENT_SET_NO = 999
REV_AT_EPOCH   = 453
BSTAR          = .56572E-3
MEAN_MOTION_DOT = .30734E-3
MEAN_MOTION_DDOT = 0

